[{"OBJECT_NAME":"STARLINK-4150","OBJECT_ID":"2022-083C","EPOCH":"2026-03-23T12:27:08.057664","MEAN_MOTION":15.08846254,"ECCENTRICITY":0.0001269,"INCLINATION":53.2156,"RA_OF_ASC_NODE":112.0389,"ARG_OF_PERICENTER":77.1357,"MEAN_ANOMALY":282.9777,"EPHEMERIS_TYPE":0,"CLASSIFICATION_TYPE":"U","NORAD_CAT_ID":53134,"ELEMENT_SET_NO":999,"REV_AT_EPOCH":20330,"BSTAR":-1.7676e-5,"MEAN_MOTION_DOT":-5.69e-6,"MEAN_MOTION_DDOT":0},{"OBJECT_NAME":"STARLINK-4023","OBJECT_ID":"2022-083D","EPOCH":"2026-03-23T11:02:20.846400","MEAN_MOTION":15.08850126,"ECCENTRICITY":0.0001133,"INCLINATION":53.2168,"RA_OF_ASC_NODE":112.3024,"ARG_OF_PERICENTER":81.1982,"MEAN_ANOMALY":278.9138,"EPHEMERIS_TYPE":0,"CLASSIFICATION_TYPE":"U","NORAD_CAT_ID":53135,"ELEMENT_SET_NO":999,"REV_AT_EPOCH":20428,"BSTAR":1.8461e-5,"MEAN_MOTION_DOT":6.0e-8,"MEAN_MOTION_DDOT":0},{"OBJECT_NAME":"STARLINK-4152","OBJECT_ID":"2022-083E","EPOCH":"2026-03-23T10:57:03.494016","MEAN_MOTION":15.08847145,"ECCENTRICITY":0.0001192,"INCLINATION":53.2165,"RA_OF_ASC_NODE":112.3199,"ARG_OF_PERICENTER":81.1117,"MEAN_ANOMALY":279.001,"EPHEMERIS_TYPE":0,"CLASSIFICATION_TYPE":"U","NORAD_CAT_ID":53136,"ELEMENT_SET_NO":999,"REV_AT_EPOCH":20428,"BSTAR":0.00012518,"MEAN_MOTION_DOT":1.705e-5,"MEAN_MOTION_DDOT":0},{"OBJECT_NAME":"STARLINK-4145","OBJECT_ID":"2022-083F","EPOCH":"2026-03-23T10:46:26.751936","MEAN_MOTION":15.08835609,"ECCENTRICITY":0.0001284,"INCLINATION":53.2161,"RA_OF_ASC_NODE":112.3527,"ARG_OF_PERICENTER":88.5356,"MEAN_ANOMALY":271.5784,"EPHEMERIS_TYPE":0,"CLASSIFICATION_TYPE":"U","NORAD_CAT_ID":53137,"ELEMENT_SET_NO":999,"REV_AT_EPOCH":20329,"BSTAR":-7.5148e-6,"MEAN_MOTION_DOT":-4.07e-6,"MEAN_MOTION_DDOT":0},{"OBJECT_NAME":"STARLINK-4141","OBJECT_ID":"2022-083G","EPOCH":"2026-03-23T10:44:29.881248","MEAN_MOTION":15.08837914,"ECCENTRICITY":0.0001194,"INCLINATION":53.216,"RA_OF_ASC_NODE":107.5395,"ARG_OF_PERICENTER":87.688,"MEAN_ANOMALY":272.4249,"EPHEMERIS_TYPE":0,"CLASSIFICATION_TYPE":"U","NORAD_CAT_ID":53138,"ELEMENT_SET_NO":999,"REV_AT_EPOCH":20413,"BSTAR":-9.8224e-5,"MEAN_MOTION_DOT":-1.851e-5,"MEAN_MOTION_DDOT":0},{"OBJECT_NAME":"STARLINK-4185","OBJECT_ID":"2022-083H","EPOCH":"2026-03-23T08:55:10.240320","MEAN_MOTION":15.08835281,"ECCENTRICITY":0.0001405,"INCLINATION":53.2157,"RA_OF_ASC_NODE":112.6999,"ARG_OF_PERICENTER":80.5284,"MEAN_ANOMALY":279.5867,"EPHEMERIS_TYPE":0,"CLASSIFICATION_TYPE":"U","NORAD_CAT_ID":53139,"ELEMENT_SET_NO":999,"REV_AT_EPOCH":20328,"BSTAR":-1.5667e-5,"MEAN_MOTION_DOT":-5.37e-6,"MEAN_MOTION_DDOT":0},{"OBJECT_NAME":"STARLINK-4170","OBJECT_ID":"2022-083J","EPOCH":"2026-03-23T07:25:05.911680","MEAN_MOTION":15.08826881,"ECCENTRICITY":0.0001168,"INCLINATION":53.2162,"RA_OF_ASC_NODE":112.9807,"ARG_OF_PERICENTER":87.3902,"MEAN_ANOMALY":272.7223,"EPHEMERIS_TYPE":0,"CLASSIFICATION_TYPE":"U","NORAD_CAT_ID":53140,"ELEMENT_SET_NO":999,"REV_AT_EPOCH":20327,"BSTAR":-8.7544e-5,"MEAN_MOTION_DOT":-1.68e-5,"MEAN_MOTION_DDOT":0},{"OBJECT_NAME":"STARLINK-4103","OBJECT_ID":"2022-083K","EPOCH":"2026-03-23T11:44:44.382048","MEAN_MOTION":15.08852892,"ECCENTRICITY":0.0001236,"INCLINATION":53.2165,"RA_OF_ASC_NODE":112.1727,"ARG_OF_PERICENTER":83.6713,"MEAN_ANOMALY":276.442,"EPHEMERIS_TYPE":0,"CLASSIFICATION_TYPE":"U","NORAD_CAT_ID":53141,"ELEMENT_SET_NO":999,"REV_AT_EPOCH":20330,"BSTAR":5.9597e-5,"MEAN_MOTION_DOT":6.61e-6,"MEAN_MOTION_DDOT":0},{"OBJECT_NAME":"STARLINK-4101","OBJECT_ID":"2022-083L","EPOCH":"2026-03-23T08:45:55.788192","MEAN_MOTION":15.08843306,"ECCENTRICITY":0.0001275,"INCLINATION":53.2171,"RA_OF_ASC_NODE":112.7022,"ARG_OF_PERICENTER":81.9215,"MEAN_ANOMALY":278.1921,"EPHEMERIS_TYPE":0,"CLASSIFICATION_TYPE":"U","NORAD_CAT_ID":53142,"ELEMENT_SET_NO":999,"REV_AT_EPOCH":20329,"BSTAR":-3.5856e-5,"MEAN_MOTION_DOT":-8.59e-6,"MEAN_MOTION_DDOT":0},{"OBJECT_NAME":"STARLINK-4102","OBJECT_ID":"2022-083M","EPOCH":"2026-03-23T08:28:40.488096","MEAN_MOTION":15.08836994,"ECCENTRICITY":0.000128,"INCLINATION":53.2176,"RA_OF_ASC_NODE":112.7835,"ARG_OF_PERICENTER":90.7827,"MEAN_ANOMALY":269.3311,"EPHEMERIS_TYPE":0,"CLASSIFICATION_TYPE":"U","NORAD_CAT_ID":53143,"ELEMENT_SET_NO":999,"REV_AT_EPOCH":20328,"BSTAR":2.525e-6,"MEAN_MOTION_DOT":-2.48e-6,"MEAN_MOTION_DDOT":0},{"OBJECT_NAME":"STARLINK-4100","OBJECT_ID":"2022-083N","EPOCH":"2026-03-23T11:55:20.103744","MEAN_MOTION":15.08839398,"ECCENTRICITY":0.0001321,"INCLINATION":53.2172,"RA_OF_ASC_NODE":112.1478,"ARG_OF_PERICENTER":86.6984,"MEAN_ANOMALY":273.4159,"EPHEMERIS_TYPE":0,"CLASSIFICATION_TYPE":"U","NORAD_CAT_ID":53144,"ELEMENT_SET_NO":999,"REV_AT_EPOCH":20330,"BSTAR":-2.5365e-5,"MEAN_MOTION_DOT":-6.92e-6,"MEAN_MOTION_DDOT":0},{"OBJECT_NAME":"STARLINK-4106","OBJECT_ID":"2022-083P","EPOCH":"2026-03-23T08:18:04.241088","MEAN_MOTION":15.08834538,"ECCENTRICITY":0.0001112,"INCLINATION":53.2176,"RA_OF_ASC_NODE":112.8151,"ARG_OF_PERICENTER":96.6623,"MEAN_ANOMALY":263.4496,"EPHEMERIS_TYPE":0,"CLASSIFICATION_TYPE":"U","NORAD_CAT_ID":53145,"ELEMENT_SET_NO":999,"REV_AT_EPOCH":20328,"BSTAR":-0.00015619,"MEAN_MOTION_DOT":-2.772e-5,"MEAN_MOTION_DDOT":0},{"OBJECT_NAME":"STARLINK-4094","OBJECT_ID":"2022-083R","EPOCH":"2026-03-23T11:23:32.319168","MEAN_MOTION":15.08841929,"ECCENTRICITY":0.0001219,"INCLINATION":53.2165,"RA_OF_ASC_NODE":112.237,"ARG_OF_PERICENTER":84.7604,"MEAN_ANOMALY":275.3527,"EPHEMERIS_TYPE":0,"CLASSIFICATION_TYPE":"U","NORAD_CAT_ID":53147,"ELEMENT_SET_NO":999,"REV_AT_EPOCH":20395,"BSTAR":4.2529e-5,"MEAN_MOTION_DOT":3.89e-6,"MEAN_MOTION_DDOT":0},{"OBJECT_NAME":"STARLINK-4021","OBJECT_ID":"2022-083T","EPOCH":"2026-03-23T10:27:59.101344","MEAN_MOTION":15.08848671,"ECCENTRICITY":0.0001356,"INCLINATION":53.2168,"RA_OF_ASC_NODE":102.6122,"ARG_OF_PERICENTER":82.0019,"MEAN_ANOMALY":278.1127,"EPHEMERIS_TYPE":0,"CLASSIFICATION_TYPE":"U","NORAD_CAT_ID":53149,"ELEMENT_SET_NO":999,"REV_AT_EPOCH":20343,"BSTAR":9.3585e-5,"MEAN_MOTION_DOT":1.202e-5,"MEAN_MOTION_DDOT":0},{"OBJECT_NAME":"STARLINK-4038","OBJECT_ID":"2022-083U","EPOCH":"2026-03-23T08:44:29.001984","MEAN_MOTION":16.0970391,"ECCENTRICITY":0.0005842,"INCLINATION":53.2076,"RA_OF_ASC_NODE":49.5737,"ARG_OF_PERICENTER":88.4134,"MEAN_ANOMALY":271.7571,"EPHEMERIS_TYPE":0,"CLASSIFICATION_TYPE":"U","NORAD_CAT_ID":53150,"ELEMENT_SET_NO":999,"REV_AT_EPOCH":20416,"BSTAR":0.00039787,"MEAN_MOTION_DOT":0.00376261,"MEAN_MOTION_DDOT":8.1012e-5},{"OBJECT_NAME":"STARLINK-4040","OBJECT_ID":"2022-083V","EPOCH":"2026-03-23T07:31:42.244032","MEAN_MOTION":15.08837265,"ECCENTRICITY":0.0001008,"INCLINATION":53.2167,"RA_OF_ASC_NODE":102.961,"ARG_OF_PERICENTER":103.2271,"MEAN_ANOMALY":256.8833,"EPHEMERIS_TYPE":0,"CLASSIFICATION_TYPE":"U","NORAD_CAT_ID":53151,"ELEMENT_SET_NO":999,"REV_AT_EPOCH":20341,"BSTAR":0.00025507,"MEAN_MOTION_DOT":3.774e-5,"MEAN_MOTION_DDOT":0},{"OBJECT_NAME":"STARLINK-4045","OBJECT_ID":"2022-083W","EPOCH":"2026-03-23T10:25:23.488896","MEAN_MOTION":15.13068957,"ECCENTRICITY":0.0001437,"INCLINATION":53.2195,"RA_OF_ASC_NODE":102.2199,"ARG_OF_PERICENTER":77.2977,"MEAN_ANOMALY":282.8178,"EPHEMERIS_TYPE":0,"CLASSIFICATION_TYPE":"U","NORAD_CAT_ID":53152,"ELEMENT_SET_NO":999,"REV_AT_EPOCH":20343,"BSTAR":0.00034957,"MEAN_MOTION_DOT":5.959e-5,"MEAN_MOTION_DDOT":0}]
