STARLINK-4150           
1 53134U 22083C   26082.51884326 -.00000569  00000+0 -17676-4 0  9998
2 53134  53.2156 112.0389 0001269  77.1357 282.9777 15.08846254203305
STARLINK-4023           
1 53135U 22083D   26082.45996350  .00000006  00000+0  18461-4 0  9990
2 53135  53.2168 112.3024 0001133  81.1982 278.9138 15.08850126204284
STARLINK-4152           
1 53136U 22083E   26082.45629044  .00001705  00000+0  12518-3 0  9997
2 53136  53.2165 112.3199 0001192  81.1117 279.0010 15.08847145204288
STARLINK-4145           
1 53137U 22083F   26082.44892074 -.00000407  00000+0 -75148-5 0  9992
2 53137  53.2161 112.3527 0001284  88.5356 271.5784 15.08835609203295
STARLINK-4141           
1 53138U 22083G   26082.44756807 -.00001851  00000+0 -98224-4 0  9999
2 53138  53.2160 107.5395 0001194  87.6880 272.4249 15.08837914204137
STARLINK-4185           
1 53139U 22083H   26082.37164630 -.00000537  00000+0 -15667-4 0  9999
2 53139  53.2157 112.6999 0001405  80.5284 279.5867 15.08835281203280
STARLINK-4170           
1 53140U 22083J   26082.30909620 -.00001680  00000+0 -87544-4 0  9993
2 53140  53.2162 112.9807 0001168  87.3902 272.7223 15.08826881203273
STARLINK-4103           
1 53141U 22083K   26082.48940257  .00000661  00000+0  59597-4 0  9997
2 53141  53.2165 112.1727 0001236  83.6713 276.4420 15.08852892203300
STARLINK-4101           
1 53142U 22083L   26082.36522903 -.00000859  00000+0 -35856-4 0  9992
2 53142  53.2171 112.7022 0001275  81.9215 278.1921 15.08843306203296
STARLINK-4102           
1 53143U 22083M   26082.35324639 -.00000248  00000+0  25250-5 0  9997
2 53143  53.2176 112.7835 0001280  90.7827 269.3311 15.08836994203286
STARLINK-4100           
1 53144U 22083N   26082.49676046 -.00000692  00000+0 -25365-4 0  9995
2 53144  53.2172 112.1478 0001321  86.6984 273.4159 15.08839398203304
STARLINK-4106           
1 53145U 22083P   26082.34588242 -.00002772  00000+0 -15619-3 0  9991
2 53145  53.2176 112.8151 0001112  96.6623 263.4496 15.08834538203284
STARLINK-4094           
1 53147U 22083R   26082.47467962  .00000389  00000+0  42529-4 0  9993
2 53147  53.2165 112.2370 0001219  84.7604 275.3527 15.08841929203959
STARLINK-4021           
1 53149U 22083T   26082.43610071  .00001202  00000+0  93585-4 0  9995
2 53149  53.2168 102.6122 0001356  82.0019 278.1127 15.08848671203436
STARLINK-4038           
1 53150U 22083U   26082.36422456  .00376261  81012-4  39787-3 0  9997
2 53150  53.2076  49.5737 0005842  88.4134 271.7571 16.09703910204160
STARLINK-4040           
1 53151U 22083V   26082.31368338  .00003774  00000+0  25507-3 0  9995
2 53151  53.2167 102.9610 0001008 103.2271 256.8833 15.08837265203415
STARLINK-4045           
1 53152U 22083W   26082.43429964  .00005959  00000+0  34957-3 0  9998
2 53152  53.2195 102.2199 0001437  77.2977 282.8178 15.13068957203434
